[{"OBJECT_NAME":"STARLINK-1420","OBJECT_ID":"2020-035AQ","EPOCH":"2026-03-10T00:00:02.999808","MEAN_MOTION":15.53743401,"ECCENTRICITY":0.00043485,"INCLINATION":53.0536,"RA_OF_ASC_NODE":20.9202,"ARG_OF_PERICENTER":112.4673,"MEAN_ANOMALY":249.9349,"EPHEMERIS_TYPE":0,"CLASSIFICATION_TYPE":"U","NORAD_CAT_ID":45695,"ELEMENT_SET_NO":999,"REV_AT_EPOCH":587,"BSTAR":0.0013975342,"MEAN_MOTION_DOT":0.00091715,"MEAN_MOTION_DDOT":0},{"OBJECT_NAME":"STARLINK-1433","OBJECT_ID":"2020-035BG","EPOCH":"2026-03-09T22:30:41.376096","MEAN_MOTION":15.54765909,"ECCENTRICITY":0.0007594,"INCLINATION":53.0512,"RA_OF_ASC_NODE":19.8564,"ARG_OF_PERICENTER":101.9471,"MEAN_ANOMALY":258.2391,"EPHEMERIS_TYPE":0,"CLASSIFICATION_TYPE":"U","NORAD_CAT_ID":45711,"ELEMENT_SET_NO":999,"REV_AT_EPOCH":31940,"BSTAR":0.00092423501,"MEAN_MOTION_DOT":0.00062622,"MEAN_MOTION_DDOT":0}]
